{
  "type": "FeatureCollection",
  "features": [
    {
      "type": "Feature",
      "properties": {
        "norad_id": 19071,
        "name": "OSCAR 32",
        "group": "nnss",
        "lat": -24.91627004754338,
        "lon": 17.004700989880497,
        "alt_km": 1295.3096643344106,
        "timestamp": "2025-12-23T09:49:07.351693+00:00",
        "meta_object_name": "OSCAR 32",
        "meta_object_id": "1988-033B",
        "meta_epoch": "2025-12-22T20:20:17.197728",
        "meta_mean_motion": 13.27955549,
        "meta_eccentricity": 0.01890971,
        "meta_inclination": 90.3208,
        "meta_ra_of_asc_node": 16.8381,
        "meta_arg_of_pericenter": 138.7954,
        "meta_mean_anomaly": 33.3896,
        "meta_ephemeris_type": 0,
        "meta_classification_type": "U",
        "meta_norad_cat_id": 19071,
        "meta_element_set_no": 999,
        "meta_rev_at_epoch": 82399,
        "meta_bstar": 0.00014844985,
        "meta_mean_motion_dot": 8.4e-07,
        "meta_mean_motion_ddot": 0,
        "tle_line1": "1 19071U 88033B   25356.84742127  .00000084  00000+0  14845-3 0  9992",
        "tle_line2": "2 19071  90.3208  16.8381 0189097 138.7954  33.3896 13.27955549823993"
      },
      "geometry": {
        "type": "Point",
        "coordinates": [
          17.004700989880497,
          -24.91627004754338
        ]
      }
    },
    {
      "type": "Feature",
      "properties": {
        "norad_id": 19223,
        "name": "NOVA 2",
        "group": "nnss",
        "lat": -19.53469766269724,
        "lon": 78.25444184005799,
        "alt_km": 1156.3225371953886,
        "timestamp": "2025-12-23T09:49:07.351703+00:00",
        "meta_object_name": "NOVA 2",
        "meta_object_id": "1988-052A",
        "meta_epoch": "2025-12-22T19:59:41.866944",
        "meta_mean_motion": 13.22936943,
        "meta_eccentricity": 0.00297225,
        "meta_inclination": 89.9867,
        "meta_ra_of_asc_node": 78.2599,
        "meta_arg_of_pericenter": 349.0095,
        "meta_mean_anomaly": 130.0034,
        "meta_ephemeris_type": 0,
        "meta_classification_type": "U",
        "meta_norad_cat_id": 19223,
        "meta_element_set_no": 999,
        "meta_rev_at_epoch": 81081,
        "meta_bstar": 0.00019678035,
        "meta_mean_motion_dot": 9.1e-07,
        "meta_mean_motion_ddot": 0,
        "tle_line1": "1 19223U 88052A   25356.83312346  .00000091  00000+0  19678-3 0  9994",
        "tle_line2": "2 19223  89.9867  78.2599 0029722 349.0095 130.0034 13.22936943810819"
      },
      "geometry": {
        "type": "Point",
        "coordinates": [
          78.25444184005799,
          -19.53469766269724
        ]
      }
    },
    {
      "type": "Feature",
      "properties": {
        "norad_id": 19419,
        "name": "OSCAR 25",
        "group": "nnss",
        "lat": 88.92251276896411,
        "lon": -157.9280064404549,
        "alt_km": 1131.2406183802495,
        "timestamp": "2025-12-23T09:49:07.351713+00:00",
        "meta_object_name": "OSCAR 25",
        "meta_object_id": "1988-074A",
        "meta_epoch": "2025-12-22T19:55:12.806112",
        "meta_mean_motion": 13.42625155,
        "meta_eccentricity": 0.00950286,
        "meta_inclination": 90.0337,
        "meta_ra_of_asc_node": 20.2769,
        "meta_arg_of_pericenter": 216.6546,
        "meta_mean_anomaly": 317.9121,
        "meta_ephemeris_type": 0,
        "meta_classification_type": "U",
        "meta_norad_cat_id": 19419,
        "meta_element_set_no": 999,
        "meta_rev_at_epoch": 82775,
        "meta_bstar": 0.00012828793,
        "meta_mean_motion_dot": 8.3e-07,
        "meta_mean_motion_ddot": 0,
        "tle_line1": "1 19419U 88074A   25356.83000933  .00000083  00000+0  12829-3 0  9993",
        "tle_line2": "2 19419  90.0337  20.2769 0095028 216.6546 317.9121 13.42625155827755"
      },
      "geometry": {
        "type": "Point",
        "coordinates": [
          -157.9280064404549,
          88.92251276896411
        ]
      }
    },
    {
      "type": "Feature",
      "properties": {
        "norad_id": 19420,
        "name": "OSCAR 31",
        "group": "nnss",
        "lat": -24.97368977005792,
        "lon": 20.646999970576395,
        "alt_km": 1145.8662516302456,
        "timestamp": "2025-12-23T09:49:07.351723+00:00",
        "meta_object_name": "OSCAR 31",
        "meta_object_id": "1988-074B",
        "meta_epoch": "2025-12-22T20:30:10.280160",
        "meta_mean_motion": 13.42586305,
        "meta_eccentricity": 0.00934128,
        "meta_inclination": 90.0353,
        "meta_ra_of_asc_node": 20.6286,
        "meta_arg_of_pericenter": 210.7253,
        "meta_mean_anomaly": 323.4705,
        "meta_ephemeris_type": 0,
        "meta_classification_type": "U",
        "meta_norad_cat_id": 19420,
        "meta_element_set_no": 999,
        "meta_rev_at_epoch": 82786,
        "meta_bstar": 0.0001254976,
        "meta_mean_motion_dot": 8.2e-07,
        "meta_mean_motion_ddot": 0,
        "tle_line1": "1 19420U 88074B   25356.85428565  .00000082  00000+0  12550-3 0  9992",
        "tle_line2": "2 19420  90.0353  20.6286 0093412 210.7253 323.4705 13.42586305827863"
      },
      "geometry": {
        "type": "Point",
        "coordinates": [
          20.646999970576395,
          -24.97368977005792
        ]
      }
    }
  ]
}